Restaurant Name,Location,Type of Cuisine,lat,lon,Address,Phone Number,Opening Hours
18 Grams Coffee & Veggie,Causeway Bay,Coffee & Vegetarian,22.2815629,114.1835415,"Hong Kong, Causeway Bay, Cannon St, 15-27號Hoi To Court",9454 0353,"SUN:0800~2000
MON:0800~1800
TUE:0800~1800
WED:0800~1800
THU:0800~1800
FRI:0800~2000
SAT:0800~2000"
181 Fortnum & Mason,Tsim Sha Tsui,British,22.2943854,114.1757819,"Shop 022, G/F K11 Atelier Victoria Dockside 18 Salisbury Road 香港九龍尖沙咀梳士巴利道18號 K11 Atelier 022, 號鋪, 18 Salisbury Rd, Tsim Sha Tsui, Hong Kong",3916 8181,"SUN:1100~2200
MON:1100~2200
TUE:1100~2200
WED:1100~2200
THU:1100~2200
FRI:1100~2200
SAT:1100~2200"
A Tavola Restaurant,Tung Chung,Italian,22.2928166,113.9427894,"Shops E & F, G/F Seaview Crescent Plaza, Lantau Island Tung Chung Lantau Island, Seaview Crescent, Hong Kong",2321 5500,"SUN:1200~0100
MON:1200~0100
TUE:1200~0100
WED:1200~0100
THU:1200~0100
FRI:1200~0200
SAT:1200~0200"
Acquasala,Central,Italian,22.2827306,114.1523916,"G/F, 13 Elgin St, Central, Hong Kong",2895 0085,"SUN:1200~2300
TUE:1700~0000
WED:1700~0000
THU:1700~0000
FRI:1700~0200
SAT:1200~0200"
aera,Wan Chai,International,22.2790238,114.176879,"Ground Floor, 6 Stewart Rd, Wan Chai, Hong Kong",9330 0387,"MON:1200~1500, 1800~2230
TUE:1200~1500, 1800~2230
WED:1200~1500, 1800~2230
THU:1200~1500, 1800~2230
FRI:1200~1500, 1800~2230
SAT:1200~1500, 1800~2230"
Ah Yat Harbour View Restaurant,Tsim Sha Tsui,Chinese,22.297025,114.1718959,"29/F, iSQUARE, 63 Nathan Rd, Tsim Sha Tsui, Hong Kong",6227 0330,"SUN:1100~1530, 1800~2300
MON:1100~1530, 1800~2300
TUE:1100~1530, 1800~2300
WED:1100~1530, 1800~2300
THU:1100~1530, 1800~2300
FRI:1100~1530, 1800~2300
SAT:1100~1530, 1800~2300"
Akanoshou,Causeway Bay,Japanese,22.2786942,114.1861932,"6/F, HDH Centre, 8 Pennington St, Causeway Bay, Hong Kong",2577 0611,"SUN:1130~1530, 1800~2300
MON:1130~1530, 1800~2300
TUE:1130~1530, 1800~2300
WED:1130~1530, 1800~2300
THU:1130~1530, 1800~2300
FRI:1130~1530, 1800~2300
SAT:1130~1530, 1800~2300"
Alibi – Wine Dine Be Social,Mong Kok,International,22.3182744,114.1681141,"Level 5, Cordis, Hong Kong, 555 Shanghai St, Mong Kok, Hong Kong",3552 3231,"SUN:1130~0100
MON:1130~0100
TUE:1130~0100
WED:1130~0100
THU:1130~0100
FRI:1130~0200
SAT:1130~0200"
ALTO Bar & Grill,Causeway Bay,Steakhouse,22.27918099999999,114.1817245,"31/F, V Point, 18 Tang Lung St, Causeway Bay, Hong Kong",2603 7181,"SUN:1130~1500, 1800~2300
MON:1200~1500, 1800~2300
TUE:1200~1500, 1800~2300
WED:1200~1500, 1800~2300
THU:1200~1500, 1800~2300
FRI:1200~1500, 1800~2300
SAT:1130~1500, 1800~2300"
APT Coffee,Wan Chai,Coffee,22.27616489999999,114.1684939,"Shop A&B,G/f 2, 12 Moon St, Wan Chai, Hong Kong",3619 4393,"SUN:0800~1800
MON:0800~1800
TUE:0800~1800
WED:0800~1800
THU:0800~1800
FRI:0800~1800
SAT:0800~1800"
Arirang Korean Restaurant,Wan Chai,Korean,22.2782361,114.1783271,"Hong Kong, 灣仔軒尼詩道314-324號, W Square, 3樓",2506 3298,"SUN:1200~1500, 1800~2300
MON:1200~1500, 1800~2300
TUE:1200~1500, 1800~2300
WED:1200~1500, 1800~2300
THU:1200~1500, 1800~2300
FRI:1200~1500, 1800~2300
SAT:1200~1500, 1800~2300"
Avanti Pizzeria (Regal Riverside Hotel),Sha Tin,Italian,22.3822106,114.1964645,"G/F, Regal Riverside Hotel, 34-36 Tai Chung Kiu Rd, Sha Tin, Hong Kong",2132 1235,"SUN:1130~2300
MON:1130~2300
TUE:1130~2300
WED:1130~2300
THU:1130~2300
FRI:1130~2300
SAT:1130~2300"
Bamboo Thai,Multiple locations,Thai,37.5343664,126.9883527,"South Korea, Seoul, Yongsan District, Noksapyeong-daero 40-gil, 48 지하 1층",02-749-0903,
Barkada,Central,Filipino,22.2822468,114.1540074,"48 Cochrane Street, UG/F, FOCO, Central, Hong Kong",2663 0238,"SUN:1200~1500, 1700~0000
WED:1200~1430, 1700~0100
THU:1200~1430, 1700~0100
FRI:1200~1500, 1700~0200
SAT:1200~1500, 1700~0200"
Beijing Home,Multiple locations,Chinese,,,,,No work time available
Bianco and Rosso,Central,Italian,22.2843058,114.1523995,"29 Gough St, Central, Hong Kong",2813 1669,"SUN:1130~1500, 1700~0000
WED:1200~1430, 1700~0000
THU:1200~1430, 1700~0000
FRI:1200~1430, 1700~0000
SAT:1130~1500, 1700~0000"
Big Boil's Club,Multiple locations,Seafood,22.441991,114.034521,"Hong Kong, Yuen Long, Fung Yau St S, 9號, Ho Shun Lee Building Block 2, 地下45號鋪",3618 4885,"SUN:1200~0100
MON:1200~0100
TUE:1200~0100
WED:1200~0100
THU:1200~0100
FRI:1200~0100
SAT:1200~0100"
Big Boils Club (North Point),North Point,Seafood,22.2920593,114.2006956,"Marble Garden Block 1, Marble Rd, North Point, Hong Kong",2331 3838,"SUN:1200~0000
MON:1200~0000
TUE:1200~0000
WED:1200~0000
THU:1200~0000
FRI:1200~0000
SAT:1200~0000"
Bino N' Booze,Sham Shui Po,Bar,22.328288,114.1585572,"Shop A G/F and 1/F, Hyde Park, 205 Hai Tan St, Sham Shui Po, Hong Kong",6353 5519,"SUN:1200~0000
MON:1200~0000
TUE:1200~0000
WED:1200~0000
THU:1200~0000
FRI:1200~0000
SAT:1200~0000"
Bistro on the Mile (Holiday Inn Golden Mile),Tsim Sha Tsui,International,22.2967671,114.1724066,"金域假日酒店, 1樓, 50號 Nathan Rd, Tsim Sha Tsui, Hong Kong",2315 1118,"SUN:1200~2200
MON:1200~2200
TUE:1200~2200
WED:1200~2200
THU:1200~2200
FRI:1200~2200
SAT:1200~2200"
BLA BLA by sensory ZERO,Multiple locations,International,22.28057310000001,114.1762849,"Shop 4, 1/F, Causeway Centre Block A, 28 Harbour Rd, Wan Chai, Hong Kong",6286 3268,"MON:0800~1730
TUE:0800~1730
WED:0800~1730
THU:0800~1730
FRI:0800~1730
SAT:0800~1730"
Blue Bottle Coffee,Multiple locations,Coffee,37.5635738,126.9829627,"14 Myeongdong-gil, Jung District, Seoul, South Korea",1533-6906,"SUN:0800~2200
MON:0800~2200
TUE:0800~2200
WED:0800~2200
THU:0800~2200
FRI:0800~2200
SAT:0800~2200"
Bombay Dreams,Central,Indian,22.2802772,114.1549572,"1/F, Winning Centre, 46 Wyndham St, Central, Hong Kong",2811 9888,"SUN:1200~1500, 1800~2300
MON:1200~1500, 1800~2300
TUE:1200~1500, 1800~2300
WED:1200~1500, 1800~2300
THU:1200~1500, 1800~2300
FRI:1200~1500, 1800~2300
SAT:1200~1500, 1800~2300"
Boticario,Tsim Sha Tsui,Portuguese,22.297575,114.1779011,"Shop G5, Tsim Sha Tsui Centre, 66 Mody Rd, Tsim Sha Tsui, Hong Kong",2765 0800,"SUN:1100~0200
MON:1200~0200
TUE:1200~0200
WED:1200~0200
THU:1200~0200
FRI:1200~0200
SAT:1100~0200"
Bouchon Bistro Francais,Central,French,22.2814649,114.1524634,"49 Elgin St, Central, Hong Kong",2525 9300,"SUN:1200~2300
MON:1200~1500, 1800~2300
TUE:1200~1500, 1800~2300
WED:1200~1500, 1800~2300
THU:1200~1500, 1800~2300
FRI:1200~1500, 1800~2330
SAT:1200~2300"
Braza Churrascaria,Central,Brazilian,22.2804855,114.155446,"3/F, Grand Progress Building, 15 Lan Kwai Fong, Central, Hong Kong",2890 9268,"SUN:1130~1600, 1800~2230
MON:1130~1500, 1800~2200
TUE:1130~1500, 1800~2200
WED:1130~1500, 1800~2200
THU:1130~1500, 1800~2200
FRI:1130~1500, 1800~2200
SAT:1130~1600, 1800~2230"
Brotzeit German Bier Bar & Restaurant,Tsuen Wan,German,22.367943,114.1102351,"G12-15 G/F, OP Mall, 100 Tai Ho Rd, Tsuen Wan, Hong Kong",2781 1988,"SUN:1200~2230
MON:1200~2230
TUE:1200~2230
WED:1200~2230
THU:1200~2230
FRI:1200~2330
SAT:1200~2330"
Cabana Breeze Bar & Grill,Tung Chung,Bar & Grill,22.2956985,113.9462568,"9 Yi Tung Road, Shop G12, Lantau Island, 15 T Bay, Tung Chung, Hong Kong",2777 8980,
Cafe 8 Degrees (Harbour Plaza 8 Degrees),To Kwa Wan,Café,,,,,No work time available
Cafe Allegro (Regal Kowloon Hotel),Tsim Sha Tsui,Italian Café,22.2988889,114.1780556,"B1, 71 Mody Rd, Tsim Sha Tsui, Hong Kong",2313 8718,"SUN:0600~2300
MON:0600~2300
TUE:0600~2300
WED:0600~2300
THU:0600~2300
FRI:0600~2300
SAT:0600~2300"
Café Circles (Nina Hotel Tsuen Wan West),Tsuen Wan,Café,22.3685716,114.1130002,"9/F, 8 Yeung Uk Rd, Tsuen Wan, Hong Kong",2280 2868,"SUN:0700~2200
MON:0700~2200
TUE:0700~2200
WED:0700~2200
THU:0700~2200
FRI:0700~2200
SAT:0700~2200"
Cafe Deco Pizzeria,Tsim Sha Tsui,Italian,22.3033576,114.1633239,"1 Austin Rd W, Tsim Sha Tsui, Hong Kong",2196 8099,"SUN:1130~2200
MON:1130~2200
TUE:1130~2200
WED:1130~2200
THU:1130~2200
FRI:1130~2200
SAT:1130~2200"
Cafe Rivoli (Regal Hong Kong Hotel),Causeway Bay,Italian Café,22.279148,114.1868295,"Hong Kong, Causeway Bay, Yee Wo St, 88號, Regal Hongkong Hotel, 1樓",2837 1772,"SUN:0600~2300
MON:0600~2300
TUE:0600~2300
WED:0600~2300
THU:0600~2300
FRI:0600~2300
SAT:0600~2300"
Cha Fan,Tsuen Wan,Chinese,22.37492049999999,114.1131957,"117, 388 Castle Peak Rd - Tsuen Wan, Tsuen Wan, Hong Kong",2350 1638,"SUN:1100~2300
MON:1100~2300
TUE:1100~2300
WED:1100~2300
THU:1100~2300
FRI:1100~2300
SAT:1100~2300"
Cha Fan Go,Multiple locations,Chinese,,,,,No work time available
Champ Kitchen,Tsim Sha Tsui,International,22.296828,114.172003,"彌敦道 63號 iSQUARE 國際廣場, 29樓, Tsim Sha Tsui, Hong Kong",6227 0220,"SUN:1100~1700, 1800~2300
MON:1100~1700, 1800~2300
TUE:1100~1700, 1800~2300
WED:1100~1700, 1800~2300
THU:1100~1700, 1800~2300
FRI:1100~1700, 1800~2300
SAT:1100~1700, 1800~2300"
Chart Coffee,Central,Coffee,22.283944,114.1555478,"Shop 218, 2/F, Central Market, 93 Queen's Road Central, Central, Hong Kong",9531 3379,"SUN:1000~1900
MON:0800~1800
TUE:0800~1800
WED:0800~1800
THU:0800~1800
FRI:0800~1800
SAT:1000~1900"
Chef's Market,Central,International,22.2842,114.15552,"Hong Kong, Central, Queen's Road Central, 93號及德輔道中80號中環街市地下G04 - G09號舖",,
Chillax,Causeway Bay,International,22.2774109,114.1849625,"Hong Kong, Causeway Bay, Leighton Rd, 97號Shop D, No. 95",2982 1328,"SUN:1200~2200
WED:1200~2200
THU:1200~2200
FRI:1200~2200
SAT:1200~2200"
Chinesology,Central,Chinese,22.2857686,114.1580741,"Hong Kong, Central, Finance St, 8號Shop 3101",6809 2299,"SUN:1130~1500, 1800~2200
MON:1200~1500, 1800~2200
TUE:1200~1500, 1800~2200
WED:1200~1500, 1800~2200
THU:1200~1500, 1800~2200
FRI:1200~1500, 1800~2230
SAT:1200~1500, 1800~2230"
Cielo (Crowne Plaza Hong Kong Kowloon East),Tseung Kwan O,Italian,22.3084618,114.2594991,"Hong Kong, Tseung Kwan O, Tong Tak St, 3號47F",3983 0638,"SUN:1200~0000
MON:1200~0000
TUE:1200~0000
WED:1200~0000
THU:1200~0000
FRI:1200~0000
SAT:1200~0000"
Cinnabon,Multiple locations,Bakery,37.56470729999999,126.9816637,"81 Namdaemun-ro, Jung District, Seoul, South Korea",02-772-3007,"SUN:1030~2030
MON:1030~2000
TUE:1030~2000
WED:1030~2000
THU:1030~2000
FRI:1030~2030
SAT:1030~2030"
Classified,Multiple locations,International,40.6969602,-74.1783276,"23 Newark International Airport St, Newark, NJ 07114, USA",,"SUN:0530~2200
MON:0530~2200
TUE:0530~2200
WED:0530~2200
THU:0530~2200
FRI:0530~2200
SAT:0530~2200"
Coucou Hot Pot‧Tea Break,Multiple locations,Hot Pot & Tea,22.3151075,114.1712915,"家樂坊地庫B03號舖, Mong Kok, Hong Kong",2360 0299,"SUN:1200~0000
MON:1200~0000
TUE:1200~0000
WED:1200~0000
THU:1200~0000
FRI:1200~0000
SAT:1200~0100"
Crêpe Delicious,Multiple locations,French,22.2859767,114.1543235,"173 Des Voeux Road Central Nan Fung Tower Shop G06, Central, Hong Kong",6336 7290,"SUN:1100~2130
MON:0800~2130
TUE:0800~2130
WED:0800~2130
THU:0800~2130
FRI:0800~2130
SAT:1100~2130"
Cupping Room,Multiple locations,Coffee,22.3019326,114.1546728,"Museum Café 1, LG/F, Hong Kong Palace Museum West Kowloon Cultural District, 8 Museum Dr, Yau Ma Tei, Hong Kong",9311 8689,"SUN:1000~1900
MON:1000~1900
TUE:1000~1900
WED:1000~1900
THU:1000~1900
FRI:1000~2000
SAT:1000~2000"
Dab-pa,Multiple locations,Korean,22.3053526,114.1611911,"Hong Kong, 尖沙咀 Austin Rd W, 1號圓方商場1047號鋪",2196 8699,"SUN:1100~2200
MON:1100~2200
TUE:1100~2200
WED:1100~2200
THU:1100~2200
FRI:1100~2200
SAT:1100~2200"
Dada Bar + Lounge,Tsim Sha Tsui,Bar & Lounge,22.3009343,114.1738969,"2F, The Luxe Manor, 39 Kimberley Rd, Tsim Sha Tsui, Hong Kong",3763 8778,"TUE:1600~0000
WED:1600~0000
THU:1600~0000
FRI:1600~0000
SAT:1600~0000"
Das Bier,Multiple locations,German,37.5606659,126.9853952,"South Korea, Seoul, Jung District, Toegye-ro 18-gil, 2 2층",02-752-9990,"SUN:1500~2300
MON:1700~0000
TUE:1700~0000
WED:1700~0000
THU:1700~0000
FRI:1700~0000
SAT:1500~0000"
Dazzling Café,Tsim Sha Tsui,Café,22.2996801,114.1722552,"Hong Kong, Tsim Sha Tsui, Nathan Rd, 100號, L322",,"SUN:1200~2130
MON:1200~2130
TUE:1200~2130
WED:1200~2130
THU:1200~2130
FRI:1200~2130
SAT:1200~2130"
ÔDELICE,Multiple locations,Bakery/Café,31.21700910000001,121.4528868,"208 Xin Le Lu, Xu Hui Qu, Shang Hai Shi, China, 200031",,
Dim Sum Bar,Tsuen Wan,Chinese,22.3687674,114.1129689,"Hong Kong, Tsuen Wan, Yeung Uk Rd, 如心廣場一期G01號舖",2633 5099,"SUN:0800~2200
MON:0800~2200
TUE:0800~2200
WED:0800~2200
THU:0800~2200
FRI:0800~2200
SAT:0800~2200"
dolos,Central,Italian,22.2829316,114.1517061,"G/F, 60 Staunton St, Central, Hong Kong",3488 5770,"TUE:1800~2300
WED:1800~2300
THU:1800~2300
FRI:1800~2300
SAT:1800~2300"
Domain,Quarry Bay,International,22.28600639999999,114.2160626,"1/F, EAST Hong Kong, 29 Taikoo Shing Road, Taikoo Shing, Quarry Bay, Hong Kong",3968 3777,"SUN:0700~1900
MON:0700~1900
TUE:0700~1900
WED:0700~1900
THU:0700~1900
FRI:0700~1900
SAT:0700~1900"
Dragon Inn,Sha Tin,Chinese,22.382272,114.196055,"1/F, 34-36 Tai Chung Kiu Rd, Sha Tin, Hong Kong",2132 1153,"SUN:1100~1500, 1800~2300
MON:1200~1500, 1800~2300
TUE:1200~1500, 1800~2300
WED:1200~1500, 1800~2300
THU:1200~1500, 1800~2300
FRI:1200~1500, 1800~2300
SAT:1100~1500, 1800~2300"
Dragonfly,Central,International,22.2810867,114.1541828,"Shop 10 - G1, Tai Kwun, 10 Hollywood Rd, Central, Hong Kong",9359 0999,"SUN:1700~0100
MON:1700~0100
TUE:1700~0100
WED:1700~0100
THU:1700~0100
FRI:1700~0200
SAT:1700~0200"
Ducklicious,Tsuen Wan,Chinese,22.3696031,114.1136505,"Shop G48, 50, 52, 56, 58 & 77 , G/F, Citywalk I, 1 Yeung Uk Rd, Tsuen Wan, Hong Kong",9198 2119,"SUN:1100~2230
MON:1100~2230
TUE:1100~2230
WED:1100~2230
THU:1100~2230
FRI:1100~2230
SAT:1100~2230"
Ebisoba Ichigen,Multiple locations,Japanese,43.05126999999999,141.345472,"9-chōme-1024-10 Minami 7 Jōnishi, Chuo Ward, Sapporo, Hokkaido 064-0807, Japan",011-513-0098,"SUN:1100~0300
MON:1100~0300
TUE:1100~0300
WED:1100~0300
THU:1100~0300
FRI:1100~0300
SAT:1100~0300"
Enchanté,Tsim Sha Tsui,French,22.3005547,114.1741324,"40 Kimberley Rd, Tsim Sha Tsui, Hong Kong",9020 9938,"SUN:1500~0100
MON:1200~0100
TUE:1200~0100
WED:1200~0100
THU:1200~0100
FRI:1200~0300
SAT:1200~0300"
FEAST (Food by EAST),Quarry Bay,International,22.2860311,114.2161239,"1, F, 29 Tai Koo Shing Rd, Quarry Bay, Hong Kong",3968 3777,"SUN:0645~1030, 1200~1430, 1800~2230
MON:0645~1030, 1200~1430, 1800~2230
TUE:0645~1030, 1200~1430, 1800~2230
WED:0645~1030, 1200~1430, 1800~2230
THU:0645~1030, 1200~1430, 1800~2230
FRI:0645~1030, 1200~1430, 1800~2230
SAT:0645~1030, 1200~1430, 1800~2230"
Feuille,Central,French,22.2848042,114.1529783,"5/F, The Wellington, 198 Wellington St, Central, Hong Kong",2881 1848,"SUN:1200~1500, 1800~2300
MON:1200~1500, 1800~2300
TUE:1200~1500, 1800~2300
WED:1200~1500, 1800~2300
THU:1200~1500, 1800~2300
FRI:1200~1500, 1800~2300
SAT:1200~1500, 1800~2300"
FINDS,Tsim Sha Tsui,International,22.3009498,114.1738621,"The Luxe Manor, 39 Kimberley Rd, Tsim Sha Tsui, Hong Kong",2522 9318,"SUN:0700~2200
MON:0700~2200
TUE:0700~2200
WED:0700~2200
THU:0700~2200
FRI:0700~2200
SAT:0700~2200"
FireBird,Multiple locations,Bar & Grill,39.1594191,-77.2199636,"390 Spectrum Ave, Gaithersburg, MD 20879, USA",(301) 284-1770,"SUN:1100~2200
MON:1100~2200
TUE:1100~2200
WED:1100~2200
THU:1100~2200
FRI:1100~2300
SAT:1100~2300"
Fleuria Fleuriste & Café,Admiralty,French Café,22.2771131,114.1652644,"88 Queensway, Shop 143, Level, 1 Pacific Pl Dr, Admiralty, Hong Kong",2721 8800,"SUN:1000~1900
MON:1000~1900
TUE:1000~1900
WED:1000~1900
THU:1000~1900
FRI:1000~1900
SAT:1000~1900"
Flint (JW Marriott Hotel Hong Kong),Admiralty,International,22.2777724,114.166384,"One Pacific Place, 88 Queensway, Central, Hong Kong",2810 8366,"SUN:1200~1430, 1800~2200
MON:1200~1430, 1800~2200
TUE:1200~1430, 1800~2200
WED:1200~1430, 1800~2200
THU:1200~1430, 1800~2200
FRI:1200~1430, 1800~2200
SAT:1200~1430, 1800~2200"
Garden Cafe (Conrad Hong Kong),Admiralty,International,22.2769084,114.1653057,"88 Queensway Lower Lobby Level Central, Admiralty, Hong Kong",2822 8890,"SUN:0630~2200
MON:0630~2200
TUE:0630~2200
WED:0630~2200
THU:0630~2200
FRI:0630~2200
SAT:0630~2200"
"Giovanni Pina Ristorante, Bar & Pasticceria",Central,Italian,22.2853409,114.1552251,"Hong Kong, Central, Des Voeux Rd Central, 135號華懋廣場II期地舖",2755 1088,"MON:1100~2100
TUE:1100~2100
WED:1100~2100
THU:1100~2100
FRI:1100~2100
SAT:1100~2100"
GODIVA Chocolatier,Multiple locations,Chocolates/Café,37.5238855,127.0370395,"1층, 15 Dosan-daero 49-gil, Gangnam District, Seoul, South Korea",02-6205-3772,"SUN:1100~2200
MON:1100~2200
TUE:1100~2200
WED:1100~2200
THU:1100~2200
FRI:1100~2200
SAT:1100~2200"
Golden Diamond Truffle,Tsim Sha Tsui,Dessert,22.297457,114.173642,"Hong Kong, Tsim Sha Tsui, Salisbury Rd, 18號, K11, MuseaB2層B201-34號舖",9824 8884,
Golden Leaf (Conrad Hong Kong),Admiralty,International,22.2767607,114.1652748,"88 Queensway Lower Lobby Level Central, Admiralty, Hong Kong",2822 8870,"SUN:1130~1500, 1800~2300
MON:1130~1500, 1800~2300
TUE:1130~1500, 1800~2300
WED:1130~1500, 1800~2300
THU:1130~1500, 1800~2300
FRI:1130~1500, 1800~2300
SAT:1130~1500, 1800~2300"
Golden Valley,Wan Chai,Chinese,22.2748095,114.1782912,"373號 Queen's Rd E, Wan Chai, Hong Kong",2961 3330,"SUN:1030~2200
MON:1200~2200
TUE:1200~2200
WED:1200~2200
THU:1200~2200
FRI:1200~2200
SAT:1030~2200"
Gonpachi,Tsim Sha Tsui,Japanese,22.296097,114.1700381,"Hong Kong, Tsim Sha Tsui, Peking Rd, One Peking, 28樓",2727 1957,"SUN:1130~0000
MON:1130~0000
TUE:1130~0000
WED:1130~0000
THU:1130~0000
FRI:1130~0000
SAT:1130~0000"
Greens Cafe (Harbour Plaza North Point),North Point,Café & Vegan,22.291538,114.208627,"665號 King's Rd, North Point, Hong Kong",2185 2155,"SUN:0630~2300
MON:0630~2300
TUE:0630~2300
WED:0630~2300
THU:0630~2300
FRI:0630~2300
SAT:0630~2300"
Grill Tajimaya,Wan Chai,Japanese,22.2803654,114.1769119,"Hong Kong, Wan Chai, Harbour Rd, 30號, Sun Hung Kai Centre, 2樓2A-1號舖",2838 9971,"MON:1130~2100
TUE:1130~2100
WED:1130~2100
THU:1130~2100
FRI:1130~2100
SAT:1130~2100"
GYOJASANG,Causeway Bay,Korean,22.2818025,114.1854557,"3 Cleveland St, Causeway Bay, Hong Kong",2880 9868,"SUN:1200~2200
MON:1200~2200
TUE:1200~2200
WED:1200~2200
THU:1200~2200
FRI:1200~2200
SAT:1200~2200"
Gyu Sou Ichuya,Causeway Bay,Japanese,22.2792646,114.1820324,"22/F, Circle Tower, 28 Tang Lung St, Causeway Bay, Hong Kong",2682 3302,"SUN:1200~1500, 1730~2300
MON:1200~1500, 1730~2300
TUE:1200~1500, 1730~2300
WED:1200~1500, 1730~2300
THU:1200~1500, 1730~2300
FRI:1200~1500, 1730~2300
SAT:1200~1500, 1730~2300"
Gyujin HANARE Platinum Label,Causeway Bay,Japanese,22.2815279,114.1842189,"Hong Kong, Causeway Bay, Gloucester Rd, 280號, World Trade Centre, 11樓L11-02號舖",2152 3962,"SUN:1200~1500, 1730~2200
MON:1200~1500, 1730~2200
TUE:1200~1500, 1730~2200
WED:1200~1500, 1730~2200
THU:1200~1500, 1730~2200
FRI:1200~1500, 1730~2200
SAT:1200~1500, 1730~2200"
HABITŪ caffè,Tsim Sha Tsui,Café,22.3009313,114.1721837,"Shop B142, B1, Mira Place 1, Tsim Sha Tsui, Hong Kong",,"SUN:1130~2200
MON:1130~2200
TUE:1130~2200
WED:1130~2200
THU:1130~2200
FRI:1130~2200
SAT:1130~2200"
HABITŪ table,Multiple locations,Café,22.2998471,114.1725035,"Shop 5A, 100 Nathan Rd, Tsim Sha Tsui, Hong Kong",,"SUN:1100~2000
MON:1100~2000
TUE:1100~2000
WED:1100~2000
THU:1100~2000
FRI:1100~2100
SAT:1100~2100"
Hana Raku Japanese Restaurant,Tsim Sha Tsui,Japanese,22.296097,114.1700381,"Unit 801,8/F, One Peking, 1 Peking Rd, Tsim Sha Tsui, Hong Kong",2622 2386,"SUN:1130~2300
MON:1130~2300
TUE:1130~2300
WED:1130~2300
THU:1130~2300
FRI:1130~2300
SAT:1130~2300"
Hanabi,Tsim Sha Tsui,Japanese,22.30118939999999,114.1735839,"4/F, 6 Knutsford Terrace, Tsim Sha Tsui, Hong Kong",2723 2568,"MON:1200~1430, 1800~2200
TUE:1200~1430, 1800~2200
WED:1200~1430, 1800~2200
THU:1200~1430, 1800~2200
FRI:1200~1430, 1800~2200
SAT:1200~1430, 1800~2200"
HANAJEOSSI POCHA,Multiple locations,Japanese,37.5633109,126.9777937,"56 Namdaemun-ro 1-gil, Jung District, Seoul, South Korea",02-777-1803,"SUN:1800~0000
MON:1700~0200
TUE:1700~0200
WED:1700~0200
THU:1700~0200
FRI:1700~0200
SAT:1700~0200"
Hansik Goo,Central,Korean,22.2847918,114.1529608,"1/F, The Wellington, 198 Wellington St, Sheung Wan, Hong Kong",2798 8768,"SUN:1200~1500, 1800~2300
TUE:1800~2300
WED:1200~1500, 1800~2300
THU:1200~1500, 1800~2300
FRI:1200~1500, 1800~2300
SAT:1200~1500, 1800~2300"
Happy Kitchen Café & Bar,Causeway Bay,International,22.2821179,114.1860255,"Shops G, 1/F, Fashion Walk, 9 Kingston St, Causeway Bay, Hong Kong",6333 3501,"SUN:1000~2000
MON:1000~2000
TUE:1000~2000
WED:1000~2000
THU:1000~2000
FRI:1000~2000
SAT:1000~2000"
Harbour Grand Cafe (Harbour Grand Hong Kong),North Point,Café,22.2890067,114.1918459,"23 Oil St, North Point, Hong Kong",2121 2688,
Harbourside Grill,Tsim Sha Tsui,Grill & Seafood,22.2944807,114.1650699,"Shop OTE401, Ocean Terminal, Harbour City, Tsim Sha Tsui, Hong Kong",2619 9100,"SUN:1200~2300
MON:1200~2300
TUE:1200~2300
WED:1200~2300
THU:1200~2300
FRI:1200~2300
SAT:1200~2300"
Harlan's,Tsim Sha Tsui,International,22.2997813,114.1723859,"100 Nathan Rd, Tsim Sha Tsui, Hong Kong",2972 2222,"SUN:1800~2230
MON:1200~1430, 1800~2230
TUE:1200~1430, 1800~2230
WED:1200~1430, 1800~2230
THU:1200~1430, 1800~2230
FRI:1200~1430, 1800~2300
SAT:1200~1430, 1800~2300"
Hau Tak Restaurant,Wan Chai,Chinese,22.2800206,114.1816608,"號地下, 454-456 Lockhart Rd, Causeway Bay, Hong Kong",9888 9153,"SUN:1130~1430, 1800~2300
MON:1130~1430, 1800~2300
TUE:1130~1430, 1800~2300
WED:1130~1430, 1800~2300
THU:1130~1430, 1800~2300
FRI:1130~1430, 1800~2300
SAT:1130~1430, 1800~2300"
Hee Kee Crab General,Tsim Sha Tsui,Chinese,22.3000821,114.1722251,"Hong Kong, 尖沙咀彌敦道The Mira Hong Kong美麗華商場2期2樓268-270號舖",2366 7565,"SUN:1200~2300
MON:1200~2300
TUE:1200~2300
WED:1200~2300
THU:1200~2300
FRI:1200~2300
SAT:1200~2300"
HEYA,Multiple locations,Bar & Lounge,,,,,No work time available
Hiya! Chafan,Multiple locations,Chinese,22.3164091,114.1819268,"Ho Man Tin St, Ho Man Tin, Hong Kong",2350 1168,
Homeland,Multiple locations,International,35.5958257,-97.63744700000001,"7001 NW 122nd St, Oklahoma City, OK 73142, USA",(405) 720-9790,"SUN:0600~2200
MON:0600~2200
TUE:0600~2200
WED:0600~2200
THU:0600~2200
FRI:0600~2200
SAT:0600~2200"
Hotspot,Causeway Bay,Bar & Lounge,22.2787437,114.1809506,"Hong Kong, Causeway Bay, Canal Rd W, 10號, Top View Mansion, 1樓A室",5540 3346,"SUN:1200~0000
MON:1200~0000
TUE:1200~0000
WED:1200~0000
THU:1200~0000
FRI:1200~0100
SAT:1200~0100"
Hungry Monkey,Causeway Bay,Bar & Grill,22.2789487,114.18217,"Shop B, G/F, Midtown Soundwill Plaza II, 1 Tang Lung St, Causeway Bay, Hong Kong",5408 9580,"SUN:1200~1530, 1730~2300
MON:1200~1530, 1730~2300
TUE:1200~1530, 1730~2300
WED:1200~1530, 1730~2300
THU:1200~1530, 1730~2300
FRI:1200~1530, 1730~2300
SAT:1200~1530, 1730~2300"
I-O-N,Multiple locations,International,37.5724552,127.0127347,"South Korea, Seoul, Jongno District, 창신제1동 160",02-745-1600,
INN – I'm Not Nothing,Kwun Tong,International,22.31429799999999,114.225271,"Hong Kong, Kwun Tong, Hip Wo St, 81號裕民坊L2樓205號舖",2988 8289,"SUN:1130~2200
MON:1130~2200
TUE:1130~2200
WED:1130~2200
THU:1130~2200
FRI:1130~2200
SAT:1130~2200"
INTERVAL Farmacy,Pok Fu Lam,Café & Healthy Foods,22.2606224,114.1300009,"Shop 207, Level 2, Arcade, Cyberport, 100 Cyberport Rd, Pok Fu Lam, Hong Kong",2380 3498,"SUN:1100~2100
MON:1100~2030
TUE:1100~2030
WED:1100~2030
THU:1100~2030
FRI:1100~2100
SAT:1100~2100"
Isono Suisan,Causeway Bay,Japanese,22.2803108,114.1837624,"19/F, Macau Yat Yuen Centre, 525 Hennessy Rd, Causeway Bay, Hong Kong",2766 3678,"SUN:1200~2300
MON:1200~1630, 1730~2300
TUE:1200~1630, 1730~2300
WED:1200~1630, 1730~2300
THU:1200~1630, 1730~2300
FRI:1200~1630, 1730~2300
SAT:1200~2300"
Jan Jan Kushikatsu,Wan Chai,Japanese,22.276249,114.170069,"2/F, 100 Queen's Rd E, Wan Chai, Hong Kong",2157 1408,"SUN:1230~1530, 1800~2300
MON:1200~1500, 1800~2300
TUE:1200~1500, 1800~2300
WED:1200~1500, 1800~2300
THU:1200~1500, 1800~2300
FRI:1200~1500, 1800~0000
SAT:1230~1530, 1800~0000"
Jom Jom,Multiple locations,Asian Fusion,,,,,No work time available
JW Café (JW Marriott Hotel Hong Kong),Admiralty,International,22.2776489,114.1666259,"J W Marriott Hotel Hong Kong Cum The Upper House, Queensway, Admiralty, Hong Kong",2810 8366,"SUN:0630~2200
MON:0630~2200
TUE:0630~2200
WED:0630~2200
THU:0630~2200
FRI:0630~2200
SAT:0630~2200"
JYU BEI,Causeway Bay,Asian Fusion,22.2807387,114.1827755,"Hong Kong, Causeway Bay, L' Hart, 12樓HK 香港島 銅鑼灣 銅鑼灣駱克道487-489號",5404 0522,"SUN:1200~1530, 1730~2300
MON:1200~1530, 1730~2300
TUE:1200~1530, 1730~2300
WED:1200~1530, 1730~2300
THU:1200~1530, 1730~2300
FRI:1200~1530, 1730~2300
SAT:1200~1530, 1730~2300"
Kaika,Tsim Sha Tsui,Japanese,22.2999276,114.1729107,"100 Nathan Rd, Tsim Sha Tsui, Hong Kong",2972 2888,"SUN:1200~1430, 1800~2230
MON:1200~1430, 1800~2230
TUE:1200~1430, 1800~2230
WED:1200~1430, 1800~2230
THU:1200~1430, 1800~2230
FRI:1200~1430, 1800~2230
SAT:1200~1430, 1800~2230"
Kani Kei,Causeway Bay,Japanese,22.2803108,114.1837624,"B/F, Macau Yat Yuen Centre, 525 Hennessy Rd, Causeway Bay, Hong Kong",2602 1600,"SUN:1200~2300
MON:1200~1600, 1800~2300
TUE:1200~1600, 1800~2300
WED:1200~1600, 1800~2300
THU:1200~1600, 1800~2300
FRI:1200~1600, 1800~2300
SAT:1200~2300"
Keisetsu,Causeway Bay,Japanese,22.27918309999999,114.1859181,"7/F, Aura On Pennington, 66 Jardine's Bazaar, Causeway Bay, Hong Kong",9473 8875,"SUN:1200~1500, 1800~2300
MON:1200~1500, 1800~2300
TUE:1200~1500, 1800~2300
WED:1200~1500, 1800~2300
THU:1200~1500, 1800~2300
FRI:1200~1500, 1800~2300
SAT:1200~1500, 1800~2300"
Khao San,Kowloon Bay,Thai,22.3198364,114.2084756,"Hong Kong, Kowloon Bay, Unit 11, Level 11, Megabox, Kowloon Bay",2602 6033,"SUN:1130~2200
MON:1130~2200
TUE:1130~2200
WED:1130~2200
THU:1130~2200
FRI:1130~2200
SAT:1130~2200"
Kinsman,Central,International,41.4782473,-81.6281681,"Kinsman, Cleveland, OH, USA",,
KITCHEN,Tsim Sha Tsui,International,22.2995834,114.1745638,"H8, Luxury Court, Hau Fook St, Tsim Sha Tsui, Hong Kong",3104 9234,"SUN:1800~2230
MON:1200~2230
TUE:1200~2230
WED:1200~2230
THU:1200~2230
FRI:1200~2230
SAT:1200~2230"
Kwan Cheuk Heen (Harbour Grand Hong Kong),North Point,Chinese,22.2890601,114.1918127,"5/F. (Minor Portion, Harbour Grand Hong Kong, 23 Oil St, North Point, Hong Kong",2121 2691,"SUN:1030~1500, 1830~2230
MON:1200~1430, 1830~2230
TUE:1200~1430, 1830~2230
WED:1200~1430, 1830~2230
THU:1200~1430, 1830~2230
FRI:1200~1430, 1830~2230
SAT:1030~1500, 1830~2230"
L'Eau Restaurant (Regal Riverside Hotel),Sha Tin,French,22.3822106,114.1964645,"3/F, 34-36, Tai Chung Kiu Rd, Sha Tin, Hong Kong",2132 1040,"SUN:0600~2300
MON:0600~2300
TUE:0600~2300
WED:0600~2300
THU:0600~2300
FRI:0600~2300
SAT:0600~2300"
Le 188 Restaurant & Lounge (Harbour Grand Hong Kong),North Point,International,22.2890067,114.1918459,"41/F, Harbour Grand Hong Kong, 23 Oil St, North Point, Hong Kong",2121 2693,"SUN:0700~1100, 1200~1430, 1830~2230
MON:0700~1030, 1200~1430, 1830~2230
TUE:0700~1030, 1200~1430, 1830~2230
WED:0700~1030, 1200~1430, 1830~2230
THU:0700~1030, 1200~1430, 1830~2230
FRI:0700~1030, 1200~1430, 1830~2230
SAT:0700~1030, 1200~1430, 1830~2230"
Le Paradis Cafe & Restaurant,Tsim Sha Tsui,French,22.300248,114.174714,"4/F, Granville House, 41C Granville Rd, Tsim Sha Tsui, Hong Kong",2311 0101,"SUN:1730~0030
MON:1730~0030
TUE:1730~0030
WED:1730~0030
THU:1730~0030
FRI:1730~0030
SAT:1730~0030"
Lobby Lounge,Wan Chai,Bar & Lounge,22.2810541,114.1729032,"1 Harbour Rd, Wan Chai, Hong Kong",2802 8888,"SUN:1100~2200
MON:1100~2200
TUE:1100~2200
WED:1100~2200
THU:1100~2200
FRI:1100~2200
SAT:1100~2200"
Lobby Lounge (Conrad Hong Kong),Admiralty,Bar & Lounge,22.2768237,114.1653472,"Hong Kong, Admiralty, Queensway, 88號太古廣場香港港麗酒店大堂樓層",2822 8891,"SUN:0800~0000
MON:0800~0000
TUE:0800~0000
WED:0800~0000
THU:0800~0000
FRI:0800~0000
SAT:0800~0000"
Lobby Lounge (Harbour Grand Hong Kong),North Point,Bar & Lounge,22.28904959999999,114.1917859,Hong Kong,,"SUN:1200~0000
MON:1200~0000
TUE:1200~0000
WED:1200~0000
THU:1200~0000
FRI:1200~0000
SAT:1200~0000"
Lof10,Sheung Wan,Café,22.2836237,114.1488801,"1 U Lam Terrace, Sheung Wan, Hong Kong",2540 2210,"SUN:1000~1900
MON:1000~1900
TUE:1000~1900
WED:1000~1900
THU:1000~1900
FRI:1000~1900
SAT:1000~1900"
Loong Yuen Cantonese Restaurant (Holiday Inn Golden Mile),Tsim Sha Tsui,Chinese,22.2969176,114.1730768,"Hong Kong, Tsim Sha Tsui, Nathan Rd, 50號金 域 假日 酒店 地 庫 1 層",2315 1006,"SUN:1100~1500, 1800~2300
MON:1100~1500, 1800~2300
TUE:1100~1500, 1800~2300
WED:1100~1500, 1800~2300
THU:1100~1500, 1800~2300
FRI:1100~1500, 1800~2300
SAT:1100~1500, 1800~2300"
Lucciola Restaurant & Bar,Wan Chai,Italian,22.2788936,114.1781134,"1/F, 330 Lockhart Rd, Wan Chai, Hong Kong",2129 0333,"SUN:0700~1100, 1200~1430, 1800~2300
MON:0700~1100, 1200~1430, 1800~2300
TUE:0700~1100, 1200~1430, 1800~2300
WED:0700~1100, 1200~1430, 1800~2300
THU:0700~1100, 1200~1430, 1800~2300
FRI:0700~1100, 1200~1430, 1800~2300
SAT:0700~1100, 1200~1430, 1800~2300"
lulu BAOBAO,Wong Chuk Hang,Asian Fusion,22.2488209,114.1663922,"Shop 102, 1/F, Tower 2, of Metro South, 39 Wong Chuk Hang Rd, Wong Chuk Hang, Hong Kong",3460 4247,"SUN:1130~2100
MON:1130~2100
TUE:1130~2100
WED:1130~2100
THU:1130~2100
FRI:1130~2100
SAT:1130~2100"
Lung Fung Chickenspot,Tsim Sha Tsui,Chinese,22.2987869,114.1735822,"Hong Kong, Tsim Sha Tsui, Carnarvon Rd, 16號金輝大廈2樓全層",4678 1930,"SUN:1200~0100
MON:1200~0100
TUE:1200~0100
WED:1200~0100
THU:1200~0100
FRI:1200~0100
SAT:1200~0100"
MAEK JEOK,Wan Chai,Korean,22.2803654,114.1769119,"1/F, Sun Hung Kai Centre, 30 Harbour Rd, Wan Chai, Hong Kong",2609 0599,"SUN:1130~2230
MON:1130~2230
TUE:1130~2230
WED:1130~2230
THU:1130~2230
FRI:1130~2230
SAT:1130~2230"
Maison ES,Wan Chai,French,22.2759379,114.1683429,"Shop B, UG/F, Hang Tak Building, 1 Electric St, Starstreet Precinct, Hong Kong",2521 8011,"SUN:1130~1600
MON:1200~1500, 1800~2300
TUE:1200~1500, 1800~2300
WED:1200~1500, 1800~2300
THU:1200~1500, 1800~2300
FRI:1200~1500, 1800~2300
SAT:1130~1600, 1800~2300"
Man Ho Chinese Restaurant (Hong Kong SkyCity Marriott Hotel),Chek Lap Kok,Chinese,22.3188317,113.9434968,"Hong Kong Skycity Marriott Hotel, 1 Sky City Rd E, Chek Lap Kok, Hong Kong",3969 2888,"SUN:1200~1430, 1800~2230
MON:1200~1430, 1800~2230
TUE:1200~1430, 1800~2230
WED:1200~1430, 1800~2230
THU:1200~1430, 1800~2230
FRI:1200~1430, 1800~2230
SAT:1200~1430, 1800~2230"
Man Ho Chinese Restaurant (JW Marriott Hotel Hong Kong),Admiralty,Chinese,22.277713,114.1665142,"Hong Kong, 金鐘金鐘道88號太古廣場香港JW萬豪酒店3樓",2810 8366,"SUN:1130~1500, 1800~2200
MON:1200~1500, 1800~2200
TUE:1200~1500, 1800~2200
WED:1200~1500, 1800~2200
THU:1200~1500, 1800~2200
FRI:1200~1500, 1800~2200
SAT:1130~1500, 1800~2200"
Matchali,Wan Chai,Indian,22.2764046,114.1684939,"G/F, 5 Moon St, Wan Chai, Hong Kong",9880 7661,"SUN:0900~1900
MON:0800~1900
TUE:0800~1900
WED:0800~1900
THU:0800~1900
FRI:0800~1900
SAT:0900~1900"
Maya Bakery & Bar,Multiple locations,Bakery & Bar,22.2872391,114.2120999,"Shop 4, Ground Floor, PCCW Tower, Taikoo Place, 979 King's Rd, Quarry Bay, Hong Kong",6695 9656,"MON:0800~2000
TUE:0800~2000
WED:0800~2000
THU:0800~2000
FRI:0800~2000
SAT:1000~1800"
Meatogo,Multiple locations,Steakhouse,22.2841355,114.1921835,"29 Ngan Mok St, Causeway Bay, Hong Kong",2368 6203,"SUN:0930~1930
MON:0930~1930
TUE:0930~1930
WED:0930~1930
THU:0930~1930
FRI:0930~1930
SAT:0930~1930"
Medium Rare Steak,Multiple locations,Steakhouse,38.93575269999999,-77.0589179,"3500 Connecticut Ave NW, Washington, DC 20008, USA",(202) 237-1432,"SUN:1000~2200
MON:1700~2200
TUE:1700~2200
WED:1700~2200
THU:1700~2200
FRI:1700~2300
SAT:1000~2300"
Megan’s Kitchen,Wan Chai,International,22.2768993,114.1770513,"HK Hong Kong Island, 5/F Lucky Centre, 165-171 Wan Chai Rd, Wan Chai, Hong Kong",2866 8305,"SUN:1200~1500, 1800~2330
MON:1200~1500, 1800~2330
TUE:1200~1500, 1800~2330
WED:1200~1500, 1800~2330
THU:1200~1500, 1800~2330
FRI:1200~1500, 1800~2330
SAT:1200~1500, 1800~2330"
Mengokoro Kunimoto,Wan Chai,Japanese,22.2760605,114.172964,"Shop 2A, Ground Floor, Wing Hing Building, 6-12 Spring Garden Ln, Wan Chai, Hong Kong",6608 8385,"SUN:1130~2130
MON:1130~2130
TUE:1130~2130
WED:1130~2130
THU:1130~2130
FRI:1130~2130
SAT:1130~2130"
"Ming Court (Cordis, Hong Kong)",Mong Kok,Chinese,22.318175,114.168112,"555 Shanghai Street Cordis, Level 6, Mong Kok, Hong Kong",3552 3300,"SUN:1030~1530, 1800~2230
MON:1100~1430, 1800~2230
TUE:1100~1430, 1800~2230
WED:1100~1430, 1800~2230
THU:1100~1430, 1800~2230
FRI:1100~1430, 1800~2230
SAT:1030~1530, 1800~2230"
"Ming Court, Wanchai",Wan Chai,Chinese,22.2809932,114.174917,"2/F, Great Eagle Centre, 23 Harbour Rd, Wan Chai, Hong Kong",2878 1212,"SUN:1100~1500, 1800~2200
MON:1130~1430, 1800~2200
TUE:1130~1430, 1800~2200
WED:1130~1430, 1800~2200
THU:1130~1430, 1800~2200
FRI:1130~1430, 1800~2200
SAT:1100~1500, 1800~2200"
Miyazaki Niku Honpo (Hong Kong),Causeway Bay,Japanese,22.2801183,114.1869205,"Hong Kong, 銅鑼灣糖街31號, Sugar+, 6樓全層",3568 5330,"SUN:1200~1500, 1700~0000
MON:1200~1500, 1700~2200
TUE:1200~1500, 1700~2200
WED:1200~1500, 1700~2200
THU:1200~1500, 1700~2200
FRI:1200~1500, 1700~0000
SAT:1200~1500, 1700~0000"
Mokumoku Yakiton,Multiple locations,Japanese,22.2802879,114.183055,"7/F, Circle Plaza, 499 Hennessy Rd, Causeway Bay, Hong Kong",2886 2062,"SUN:1400~0000
MON:1400~0000
TUE:1400~0000
WED:1400~0000
THU:1400~0000
FRI:1400~0000
SAT:1400~0000"
Moments Together (Causeway Bay),Causeway Bay,International,22.2781348,114.1819966,"Shop 1103, 11/F, Times Square, 1 Matheson St, Causeway Bay, Hong Kong",2321 6833,"SUN:1100~1600, 1730~2230
MON:1130~1600, 1730~2200
TUE:1130~1600, 1730~2200
WED:1130~1600, 1730~2200
THU:1130~1600, 1730~2200
FRI:1130~1600, 1730~2200
SAT:1100~1600, 1730~2230"
Moments Together (Tsim Sha Tsui),Tsim Sha Tsui,International,22.3040198,114.162057,"Hong Kong, 尖沙咀 Austin Rd W, 1號漾日居3座圓方(火區樓1008號舖",2337 2883,"SUN:1100~1600, 1630~2230
MON:1130~1600, 1630~2200
TUE:1130~1600, 1630~2200
WED:1130~1600, 1630~2200
THU:1130~1600, 1630~2200
FRI:1130~1600, 1630~2200
SAT:1100~1600, 1630~2230"
Morokok,Mong Kok,Japanese,22.3151075,114.1712915,"Hong Kong, Mong Kok, Dundas St, 56號, Gala Place, 8樓801號舖",2363 1882,"SUN:1200~2300
MON:1200~2300
TUE:1200~2300
WED:1200~2300
THU:1200~2300
FRI:1200~0000
SAT:1200~0000"
Mother Pearl,Multiple locations,Brunch,,,,,No work time available
Mr Cha Fan,Tseung Kwan O,Chinese,22.3066879,114.2561036,"137B, Park Central, 9 Tong Tak St, Tseung Kwan O, Hong Kong",2350 1628,"SUN:1100~2200
MON:1100~2200
TUE:1100~2200
WED:1100~2200
THU:1100~2200
FRI:1100~2200
SAT:1100~2200"
MR & MRS FOX,Quarry Bay,European,22.28751639999999,114.2115078,"23 Tong Chong St, Quarry Bay, Hong Kong",2697 8500,"MON:1200~0000
TUE:1200~0000
WED:1200~0000
THU:1200~0000
FRI:1200~0000"
Nagomi (Harbour Grand Hong Kong),North Point,Japanese,22.2890773,114.1916341,"Hong Kong, 北角油街23號海逸君綽酒店地下",,"SUN:1200~1230, 1830~2230
MON:1200~1230, 1830~2230
TUE:1200~1230, 1830~2230
WED:1200~1230, 1830~2230
THU:1200~1230, 1830~2230
FRI:1200~1230, 1830~2230
SAT:1200~1230, 1830~2230"
Nicholini's (Conrad International Hong Kong),Admiralty,Italian,22.2768264,114.1652949,"Level 8, 88 Queensway, Central, Hong Kong",2822 8801,"SUN:1130~1430, 1830~2230
MON:1200~1500, 1830~2230
TUE:1200~1500, 1830~2230
WED:1200~1500, 1830~2230
THU:1200~1500, 1830~2230
FRI:1200~1500, 1830~2230
SAT:1130~1430, 1830~2230"
Nipponshu Department Sake Store ・Kakuuchi,Tsim Sha Tsui,Japanese,22.3024273,114.1752431,"Shop B1, G/F, 15B Austin Ave, Tsim Sha Tsui, Hong Kong",6841 4123,"MON:1300~0000
TUE:1300~0000
WED:1300~0000
THU:1300~0000
FRI:1300~0000
SAT:1300~0000"
NOC COFFEE CO.,Multiple locations,Coffee,22.2969288,114.1695591,"Shop 02, UG/F, T Galleria By DFS, 28 Canton Rd, Tsim Sha Tsui, Hong Kong",2310 8868,"SUN:0900~2100
MON:0800~2100
TUE:0800~2100
WED:0800~2100
THU:0800~2100
FRI:0800~2100
SAT:0900~2100"
nodi,Multiple locations,Italian,25.0631898,90.8274776,"Nodi River, Bangladesh",,
Odyssée,Tsim Sha Tsui,French,22.3034408,114.1602015,"Shop A, International Commerce Centre (ICC), 101 F 1 Austin Rd W, Tsim Sha Tsui, Hong Kong",2977 5266,"SUN:1200~1530, 1800~2200
MON:1200~1530, 1800~2200
TUE:1200~1530, 1800~2200
WED:1200~1530, 1800~2200
THU:1200~1530, 1800~2200
FRI:1200~1530, 1800~2200
SAT:1200~1530, 1800~2200"
ÓNA Mediterranean Restaurant & Bar,Tung Chung,Mediterranean,22.2965554,114.0162551,"Shop G09, Lantau Island, DB Plaza, 1 Discovery Bay Rd, Discovery Bay, Hong Kong",3619 0937,"SUN:0830~2300
MON:1130~2300
TUE:1130~2300
WED:1130~2300
THU:1130~2300
FRI:1130~2300
SAT:0830~2300"
Osteria Ristorante Italiano (Holiday Inn Golden Mile),Tsim Sha Tsui,Italian,22.2968215,114.1724853,"Mezzanine Floor, Holiday Inn Golden Mile, 50 Nathan Road, Tsim Sha Tsui, Tsim Sha Tsui, Hong Kong",2315 1010,"SUN:1200~1500, 1800~2300
MON:1200~1500, 1800~2300
TUE:1200~1500, 1800~2300
WED:1200~1500, 1800~2300
THU:1200~1500, 1800~2300
FRI:1200~1500, 1800~2300
SAT:1200~1500, 1800~2300"
OTETSU,Causeway Bay,Japanese,22.2807387,114.1827755,"Hong Kong, Causeway Bay, Lockhart Rd, 487-489號, L' Hart, 13樓",5703 1162,"SUN:1130~1500, 1800~2300
MON:1130~1500, 1800~2300
TUE:1130~1500, 1800~2300
WED:1130~1500, 1800~2300
THU:1130~1500, 1800~2300
FRI:1130~1500, 1800~2300
SAT:1130~1500, 1800~2300"
Pacific Bar (Conrad Hong Kong),Admiralty,Bar & Lounge,22.2767426,114.1652815,"Level 8, 88 Queensway, Admiralty, Hong Kong",2822 8816,"SUN:1700~2300
MON:1700~2300
TUE:1700~2300
WED:1700~2300
THU:1700~2300
FRI:1700~2300
SAT:1700~2300"
Page Common,Tsim Sha Tsui,International,22.303233,114.1747076,"G/F, 148 Austin Rd, Tsim Sha Tsui, Hong Kong",3844 8899,"SUN:0800~1800
MON:0800~1800
TUE:0800~1800
WED:0800~1800
THU:0800~1800
FRI:0800~1800
SAT:0800~1800"
"Palm Court (The Langham, Hong Kong)",Tsim Sha Tsui,International,22.2963927,114.1697395,"Lobby Level, The Langham, Hong Kong, 8 Peking Rd, Tsim Sha Tsui, Hong Kong",2132 7898,"SUN:0230~0000
MON:1130~1430, 1500~1730, 1830~0000
TUE:1130~1430, 1500~1730, 1830~0000
WED:1130~1430, 1500~1730, 1830~0000
THU:1130~1430, 1500~1730, 1830~0000
FRI:1130~1430, 1500~1730, 1830~0000
SAT:0230~0000"
Petra,Chek Lap Kok,Middle Eastern,22.3193885,113.9422061,"G/F, Lantau Island, International Airport, 8 Airport Expo Blvd, Chek Lap Kok, Hong Kong",3556 3208,"SUN:0700~2230
MON:0700~2230
TUE:0700~2230
WED:0700~2230
THU:0700~2230
FRI:0700~2230
SAT:0700~2230"
PHI Coffee & Pancake,Multiple locations,Café,22.4457127,114.0341581,"A218, 8 Long Yat Rd, Yuen Long, Hong Kong",,
Pho Bay Vietnamese Restaurant & Bar,Tung Chung,Vietnamese,22.2965499,114.0163366,"Shop G08B DB Plaza, 1 Discovery Bay Road, Discovery Bay, Discovery Bay, Lantau Island, Hong Kong",3619 0932,"SUN:1130~2300
MON:1130~2300
TUE:1130~2300
WED:1130~2300
THU:1130~2300
FRI:1130~2300
SAT:1130~2300"
pho.dle.bar,Tsim Sha Tsui,Vietnamese,22.3035341,114.1633124,"Shop 2132 ELEMENTS, 1 Austin Rd W, Tsim Sha Tsui, Hong Kong",2196 8175,"SUN:1130~2200
MON:1130~2200
TUE:1130~2200
WED:1130~2200
THU:1130~2200
FRI:1130~2200
SAT:1130~2200"
PHO Locomotive,Tseung Kwan O,Vietnamese,22.3031408,114.2609805,"Tong Chun St, Tseung Kwan O, Hong Kong",,"SUN:1130~2200
MON:1130~2200
TUE:1130~2200
WED:1130~2200
THU:1130~2200
FRI:1130~2200
SAT:1130~2200"
QUÉ QUÉ,Multiple locations,Mexican,37.54993179999999,126.9224184,"10 Wausan-ro 15-gil, Mapo-gu, Seoul, South Korea",02-338-9929,
Regal Court,Multiple locations,International,,,,,No work time available
Regal Palace (Regal Hong Kong Hotel),Causeway Bay,Chinese,22.279148,114.1868295,"3/F, 88 Yee Wo St, Causeway Bay, Hong Kong",2837 1773,"SUN:1100~1500, 1800~2300
MON:1200~1500, 1800~2300
TUE:1200~1500, 1800~2300
WED:1200~1500, 1800~2300
THU:1200~1500, 1800~2300
FRI:1200~1500, 1800~2300
SAT:1100~1500, 1800~2300"
Regal Terrace (Regal Riverside Hotel),Sha Tin,International,22.382272,114.196055,"2/F, 34-36, Tai Chung Kiu Rd, Sha Tin, Hong Kong",2132 1012,"SUN:0800~1500, 1800~2300
MON:0800~1500, 1800~2300
TUE:0800~1500, 1800~2300
WED:0800~1500, 1800~2300
THU:0800~1500, 1800~2300
FRI:0800~1500, 1800~2300
SAT:0800~1500, 1800~2300"
Reign Caviar,Tsim Sha Tsui,Seafood,22.2944412,114.1746188,"Hong Kong, Tsim Sha Tsui, Salisbury Rd, 18號, K11 Musea, L117號舖",3468 5199,"SUN:1130~2130
MON:1130~2130
TUE:1130~2130
WED:1130~2130
THU:1130~2130
FRI:1130~2130
SAT:1130~2130"
"Reign, The Abalone House",Multiple locations,Seafood,22.3044173,114.1623115,"Shop 1097A, 1 Austin Rd W, West Kowloon, Hong Kong",2833 1997,"SUN:1100~2030
MON:1100~2030
TUE:1100~2030
WED:1100~2030
THU:1100~2030
FRI:1100~2030
SAT:1100~2030"
Reserva Ibérica Tapas Bar & Café,Tsim Sha Tsui,Spanish,22.2953381,114.1688303,"Shop OT305A, 3/F, Harbour City, Tsim Sha Tsui, Hong Kong",2111 1338,"SUN:1200~2200
MON:1200~2200
TUE:1200~2200
WED:1200~2200
THU:1200~2200
FRI:1200~2200
SAT:1200~2200"
Reserva Ibérica • The Ham Shop,Sheung Wan,Spanish,22.2852498,114.1482566,"Hong Kong, Sheung Wan, Hollywood Rd, 194號興寶樓地下",052 364 696,"SUN:1130~2130
MON:0900~1700
TUE:1130~2130
WED:1130~2130
THU:1130~2130
FRI:1130~2130
SAT:1130~2130"
Rico Rico,Tsim Sha Tsui,International,22.3030616,114.1629305,"Shop 1001, 1/F, 1 Austin Rd W, West Kowloon, Hong Kong",3460 2787,"SUN:1130~2130
MON:1130~2130
TUE:1130~2130
WED:1130~2130
THU:1130~2130
FRI:1130~2130
SAT:1130~2130"
Rise by Classified,Central,International,22.2839298,114.1583175,"Shop No. 313, 3/F, Exchange Square Podium, 8 Connaught Pl, Central, Hong Kong",2147 3454,"MON:0800~2007
TUE:0800~2000
WED:0800~2000
THU:0800~2000
FRI:0800~2000"
Rouge (Regal Airport Hotel),Chek Lap Kok,French,22.3186949,113.9343274,"9 Cheong Tat Road, Hong Kong International Airport Chek Lap Kok, Lantau Island, Hong Kong",2286 8888,SUN:0000~N/A
ROYAL INN,Multiple locations,International,37.5643101,126.9855685,"21 Uirim-daero 11-gil, Jung District, Seoul, South Korea",,
RÚ (Nina Hotel Tsuen Wan West),Tsuen Wan,International,22.3685909,114.1129769,"8 Yeung Uk Rd, Tsuen Wan, Hong Kong",2280 2898,SUN:0000~N/A
Saburo Japanese Yakiniku,Tsim Sha Tsui,Japanese,22.2953974,114.1733859,"Hong Kong, Tsim Sha Tsui, Middle Rd, 15號, H Zentre, 地下3號舖",2398 1813,"SUN:1200~1600, 1730~2300
MON:1200~1600, 1730~2300
TUE:1200~1600, 1730~2300
WED:1200~1600, 1730~2300
THU:1200~1600, 1730~2300
FRI:1200~1600, 1730~2300
SAT:1200~1600, 1730~2300"
Sake Bar CHU CHU,Causeway Bay,Japanese,22.2792646,114.1820324,"Hong Kong, Causeway Bay, Tang Lung St, 28號, Circle Tower, 25樓",5589 4466,"SUN:1730~0000
MON:1730~0000
TUE:1730~0000
WED:1730~0000
THU:1730~0000
FRI:1730~0100
SAT:1730~0100"
Sake Bar MURA,Tsim Sha Tsui,Japanese,22.3020423,114.1751935,"Hong Kong, Tsim Sha Tsui, Austin Ave, 15號, Kimberley Mansion, Block B G/F Shop D",5589 9844,"SUN:1800~0100
MON:1800~0100
TUE:1800~0100
WED:1800~0100
THU:1800~0100
FRI:1800~0200
SAT:1800~0200"
Salisterra,Admiralty,Mediterranean,22.277509,114.166341,"Level 49 The Upper House Pacific Place 88, 88 Queensway, Admiralty, Hong Kong",3968 1106,"SUN:0630~0100
MON:0630~0100
TUE:0630~0100
WED:0630~0100
THU:0630~0100
FRI:0630~0100
SAT:0630~0100"
Sanwa Jo,Kowloon City,Japanese,22.3292577,114.1876917,"46 Fuk Lo Tsun Rd, Kowloon City, Hong Kong",2321 0867,"SUN:1200~1500, 1800~2200
TUE:1230~1500, 1800~2200
WED:1200~1500, 1800~2200
THU:1200~1500, 1800~2200
FRI:1200~1500, 1800~2200
SAT:1200~1500, 1800~2200"
sensory ZERO,Multiple locations,International,22.3173504,114.1639019,"Shop G29, G/F, Olympian City 3, 1 Hoi Wang Rd, Mong Kok, Hong Kong",3547 2358,"SUN:1130~2030
MON:1130~2030
TUE:1130~2030
WED:1130~2030
THU:1130~2030
FRI:1130~2030
SAT:1130~2030"
Seolhamyeok,Tsim Sha Tsui,Korean,22.2950371,114.1664476,"Harbour City, Canton Rd, Tsim Sha Tsui, Hong Kong",,"SUN:1200~2230
MON:1200~2230
TUE:1200~2230
WED:1200~2230
THU:1200~2230
FRI:1200~2230
SAT:1200~2230"
Shh Cafe,Tsim Sha Tsui,Café,22.303166,114.1742878,"Shop B, G/F, 144 Austin Rd, Tsim Sha Tsui, Hong Kong",3795 3065,"SUN:1100~2200
MON:1130~2200
TUE:1130~2200
WED:1130~2200
THU:1130~2200
FRI:1130~2230
SAT:1100~2230"
Silk,Multiple locations,Chinese,37.5696477,126.99967,"South Korea, Seoul, Jongno District, Cheonggyecheon-ro, 199 1층",02-2278-3882,"MON:0900~1800
TUE:0900~1800
WED:0900~1800
THU:0900~1800
FRI:0900~1800
SAT:0900~1600"
Simplicity,Tsuen Wan,International,22.3688543,114.1206598,"Floor 3, Panda Hotel, 3 Tsuen Wah St, Tsuen Wan, Hong Kong",2409 3226,"SUN:0630~1030, 1200~1430, 1800~2100
MON:0630~1030, 1200~1430, 1800~2100
TUE:0630~1030, 1200~1430, 1800~2100
WED:0630~1030, 1200~1430, 1800~2100
THU:0630~1030, 1200~1430, 1800~2100
FRI:0630~1030, 1200~1430, 1800~2100
SAT:0630~1030, 1200~1430, 1800~2100"
SkyCity Bistro (Hong Kong SkyCity Marriott Hotel),Chek Lap Kok,International,22.3189183,113.9435059,"1 Sky City Road East, Hong Kong International Airport, Hong Kong SAR, Hong Kong",3969 2500,"SUN:0630~1100, 1200~1430, 1800~2230
MON:0630~1100, 1200~1430, 1800~2230
TUE:0630~1100, 1200~1430, 1800~2230
WED:0630~1100, 1200~1430, 1800~2230
THU:0630~1100, 1200~1430, 1800~2230
FRI:0630~1100, 1200~1430, 1800~2230
SAT:0630~1100, 1200~1430, 1800~2230"
Sole Mio,Central,Italian,22.2811469,114.1526154,"Soho, Upper Ground (UG/F, The Elgin, 51 Elgin St, Central, Hong Kong",5508 8244,"SUN:1200~2130
MON:1200~1500, 1800~2230
WED:1200~1500, 1800~2230
THU:1200~1500, 1800~2230
FRI:1200~1500, 1800~2230
SAT:1200~2130"
Spice Restaurant & Bar,Tsim Sha Tsui,Indian,22.3012127,114.1731267,"Hong Kong, Tsim Sha Tsui, Knutsford Terrace, One Knutsford Terrace, 2樓",2191 9880,"SUN:1130~2300
MON:1130~2300
TUE:1130~2300
WED:1130~2300
THU:1130~2300
FRI:1130~2330
SAT:1130~2330"
Spicy Restaurant,Mong Kok,Chinese,22.3178752,114.1698982,"Hong Kong, Mong Kok, Nathan Rd, 628號, King Wah Centre, 10樓",2156 1618,"SUN:1130~2200
MON:1130~2200
TUE:1130~2200
WED:1130~2200
THU:1130~2200
FRI:1130~2300
SAT:1130~2300"
SPIGA,Central,Italian,22.282093,114.156549,"3/F, Lht Tower Podium, Central, Hong Kong",2871 0055,"SUN:1130~1400, 1800~2230
MON:1130~1400, 1800~2230
TUE:1130~1400, 1800~2230
WED:1130~1400, 1800~2230
THU:1130~1400, 1800~2230
FRI:1130~1400, 1800~2230
SAT:1130~1400, 1800~2230"
StoneOne,Kowloon City,Bar & Grill,22.329778,114.191943,"Hong Kong, Kowloon City, Kai Tak Rd, 55號AVA556號",6299 8565,
Stormies,Tsim Sha Tsui,Bar & Lounge,22.3042331,114.161391,"Shop R005 - R007, 1 Austin Rd W, Tsim Sha Tsui, Hong Kong",2196 8098,"SUN:1200~0000
MON:1200~0100
TUE:1200~0100
WED:1200~0100
THU:1200~0100
FRI:1200~0100
SAT:1200~0100"
Sugar,Quarry Bay,Dessert,22.28600639999999,114.2160626,"Hong Kong, Taikoo Shing, Taikoo Shing RoadHK Hong Kong Island Taikoo 32/F, EAST, 29",3968 3738,"SUN:1730~0030
MON:1730~0000
TUE:0030~0100, 1730~0000
WED:0030~0100, 1730~0000
THU:0030~0100, 1730~0000
FRI:0030~0100, 1730~0130
SAT:1730~0130"
SUKIYAKIYA,Wan Chai,Japanese,22.2803654,114.1769119,"Hong Kong, Wan Chai, Harbour Rd, 30號, Sun Hung Kai Centre, 2樓2A-1鋪",2838 6602,"MON:1130~1500, 1730~2100
TUE:1130~1500, 1730~2100
WED:1130~1500, 1730~2100
THU:1130~1500, 1730~2100
FRI:1130~1500, 1730~2100
SAT:1130~1500, 1730~2100"
Suljib 술집,Causeway Bay,Korean,22.2781181,114.1821889,"Shop 1302, 13/F, Times Square, 1 Matheson St, Causeway Bay, Hong Kong",3580 2798,"SUN:1130~2230
MON:1130~2230
TUE:1130~2230
WED:1130~2230
THU:1130~2230
FRI:1130~2230
SAT:1130~2230"
Supergiant Social Dining & Cocktail Bar,Causeway Bay,Cocktail Bar,22.2797493,114.179517,"3/F, Mira Moon Hotel,, 388 Jaffe Rd, Causeway Bay, Hong Kong",2643 8875,"SUN:0700~2200
MON:0700~2200
TUE:0700~2200
WED:0700~2200
THU:0700~2200
FRI:0700~2200
SAT:0700~2200"
Surasang,Tsim Sha Tsui,Korean,22.3050962,114.1608317,"Shop 1028B, 1 Austin Rd W, Tsim Sha Tsui, Hong Kong",2519 9182,"SUN:1130~2200
MON:1130~2200
TUE:1130~2200
WED:1130~2200
THU:1130~2200
FRI:1130~2200
SAT:1130~2200"
Sushi Itsu,Causeway Bay,Japanese,22.2807387,114.1827755,"27/F, L' Hart, 487-489 Lockhart Rd, Causeway Bay, Hong Kong",5548 0561,"SUN:1145~1500, 1800~2200
MON:1145~1500, 1800~2200
TUE:1145~1500, 1800~2200
WED:1145~1500, 1800~2200
THU:1145~1500, 1800~2200
FRI:1145~1500, 1800~2200
SAT:1145~1500, 1800~2200"
Sushi N,Causeway Bay,Japanese,22.2792127,114.1846448,"12/F, Henry House, 42 Yun Ping Rd, Causeway Bay, Hong Kong",9284 2485,"SUN:1200~1430, 1800~2230
MON:1200~1430, 1800~2230
TUE:1200~1430, 1800~2230
WED:1200~1430, 1800~2230
THU:1200~1430, 1800~2230
FRI:1200~1430, 1800~2230
SAT:1200~1430, 1800~2230"
Sushi Yamatsuki,Causeway Bay,Japanese,22.2803858,114.181626,"2/F, 459 Lockhart Rd, Causeway Bay, Hong Kong",6393 9686,"SUN:1200~1500, 1830~2300
MON:1200~1500, 1830~2300
TUE:1200~1500, 1830~2300
WED:1200~1500, 1830~2300
THU:1200~1500, 1830~2300
FRI:1200~1500, 1830~2300
SAT:1200~1500, 1830~2300"
Suzuno,Happy Valley,Japanese,22.2764594,114.1825432,"Ground Floor, 163 Wong Nai Chung Rd, Happy Valley, Hong Kong",2377 0228,"MON:1200~1430, 1800~2230
TUE:1200~1430, 1800~2230
WED:1200~1430, 1800~2230
THU:1200~1430, 1800~2230
FRI:1200~1430, 1800~2230
SAT:1200~1430, 1800~2230"
Tai Cha Fan,Tseung Kwan O,Chinese,22.3066879,114.2561036,"137B, Park Central, 9 Tong Tak St, Tseung Kwan O, Hong Kong",2350 1628,"SUN:1100~2200
MON:1100~2200
TUE:1100~2200
WED:1100~2200
THU:1100~2200
FRI:1100~2200
SAT:1100~2200"
Takano Ramen,Multiple locations,Japanese,35.4913383,139.6460091,"135-11 Ōguchidōri, Kanagawa Ward, Yokohama, Kanagawa 221-0002, Japan",045-717-9042,"TUE:1100~1400
WED:1100~1400
THU:1100~1400
FRI:1100~1400
SAT:1100~1500"
"T'ang Court (The Langham, Hong Kong)",Tsim Sha Tsui,Chinese,22.2964119,114.169746,"1F and 2F, The Langham, 8 Peking Rd, Tsim Sha Tsui, Hong Kong",2132 7898,"SUN:1100~1500, 1800~2200
MON:1200~1500, 1800~2200
TUE:1200~1500, 1800~2200
WED:1200~1500, 1800~2200
THU:1200~1500, 1800~2200
FRI:1200~1500, 1800~2200
SAT:1100~1500, 1800~2200"
Tango Argentinian Steakhouse,Central,Steakhouse,22.2804988,114.155431,"2/F, Grand Progress Building, 15 Lan Kwai Fong, Central, Hong Kong",2525 5808,"SUN:1145~1500, 1800~2200
MON:1145~1500, 1800~2200
TUE:1145~1500, 1800~2200
WED:1145~1500, 1800~2200
THU:1145~1500, 1800~2200
FRI:1145~1500, 1800~2200
SAT:1145~1500, 1800~2200"
TANGRAM Bistro & Bar,Wan Chai,Bar,22.2791623,114.1768624,"2/F, AKI Hong Kong- MGallery, 239 Jaffe Rd, Wan Chai, Hong Kong",2121 5021,"SUN:0700~2300
MON:0630~2300
TUE:0630~2300
WED:0630~2300
THU:0630~2300
FRI:0630~2300
SAT:0700~2300"
Tapas Brew,San Po Kong,Spanish,22.3337809,114.1967969,"Hong Kong, San Po Kong, Prince Edward Rd E, 638號Mikiki地下G02A號舖",2321 3138,"SUN:1130~2300
MON:1130~2300
TUE:1130~2300
WED:1130~2300
THU:1130~2300
FRI:1130~2300
SAT:1130~2300"
Tasty Hotpot Palace,Multiple locations,Hot Pot,22.2987869,114.1735822,"Hong Kong, Tsim Sha Tsui, Carnarvon Rd, 16號金輝大廈1樓全層 (入口於金馬倫道恆生銀行對面",2338 1515,"SUN:1200~0000
MON:1200~0000
TUE:1200~0000
WED:1200~0000
THU:1200~0000
FRI:1200~0000
SAT:1200~0000"
Tea Express Bar By Jrink,Tsim Sha Tsui,Tea Bar,22.2976094,114.1738104,"K11 Art Mall 18, 3/F Kiosk, 51 Hanoi Rd, Tsim Sha Tsui, Hong Kong",,"SUN:1200~1930
MON:1200~1930
TUE:1200~1930
WED:1200~1930
THU:1200~1930
FRI:1200~1930
SAT:1200~1930"
Testina,Central,Italian,22.28235249999999,114.1547437,"3/F, 8 Lyndhurst Terrace, Central, Hong Kong",2798 0668,"SUN:1200~1500, 1800~2300
MON:1200~1500, 1800~2300
WED:1200~1500, 1700~2300
THU:1200~1500, 1800~2300
FRI:1200~1500, 1800~2300
SAT:1200~1500, 1800~2300"
"The Bostonian (The Langham, Hong Kong)",Tsim Sha Tsui,American,22.296439,114.169776,"Lower Lobby, The Langham, Hong Kong, 8 Peking Rd, Tsim Sha Tsui, Hong Kong",2132 7898,"SUN:1200~1600, 1800~2200
MON:1200~1430, 1800~2200
TUE:1200~1430, 1800~2200
WED:1200~1430, 1800~2200
THU:1200~1430, 1800~2200
FRI:1200~1430, 1800~2200
SAT:1200~1600, 1800~2200"
The Cakery,Multiple locations,Bakery,37.5611419,126.9860666,"64-6 Chungmuro 2(i)-ga, Jung District, Seoul, South Korea",02-319-7863,"SUN:0730~2200
MON:0730~2200
TUE:0730~2200
WED:0730~2200
THU:0730~2200
FRI:0730~2200
SAT:0730~2200"
The Charcoal Room,Multiple locations,BBQ & Grill,36.2505239,-115.2441487,"4949 N Rancho Dr, Las Vegas, NV 89130, USA",(702) 515-4385,"SUN:1700~2100
MON:1700~2100
TUE:1700~2100
WED:1700~2100
THU:1700~2100
FRI:1700~2200
SAT:1700~2200"
The Continental,Admiralty,International,22.2776781,114.1649705,"Hong Kong, 中環金鐘道88號Pacific PlaceUnit 406 L4",2704 5211,"SUN:1100~2300
MON:1200~2300
TUE:1200~0000
WED:1200~0000
THU:1200~0000
FRI:1200~0000
SAT:1100~0000"
The Crown,Wan Chai,British,22.2748174,114.1782535,"25/F, The Emperor Hotel, 373 Queen's Rd E, Wan Chai, Hong Kong",2961 3399,"SUN:1700~0200
MON:1700~0200
TUE:1700~0200
WED:1700~0200
THU:1700~0200
FRI:1700~0200
SAT:1700~0200"
"The Food Gallery (The Langham, Hong Kong)",Tsim Sha Tsui,International,22.2964119,114.1697353,"Lobby Level, The Langham, Hong Kong, 8 Peking Rd, Tsim Sha Tsui, Hong Kong",2132 7898,"SUN:1145~1345, 1415~1615, 1800~2200
MON:1200~1430, 1800~2200
TUE:1200~1430, 1800~2200
WED:1200~1430, 1800~2200
THU:1200~1430, 1800~2200
FRI:1200~1430, 1800~2200
SAT:1145~1345, 1415~1615, 1800~2200"
"The Garage Bar (Cordis, Hong Kong)",Mong Kok,Bar & Lounge,22.318175,114.168112,"555 Shanghai Street Cordis, Level L, Mong Kok, Hong Kong",3552 3232,"SUN:1600~0000
MON:1600~0000
TUE:1600~0000
WED:1600~0000
THU:1600~0000
FRI:1600~0000
SAT:1600~0000"
The Grand Patagonia Argentinian Steak House,Sheung Wan,Steakhouse,22.2862529,114.1517808,"Hong Kong, Sheung Wan, Wing Lok St, 50號, Cs Tower, 3/F",9145 5937,"SUN:1200~1500, 1800~2300
MON:1200~1500, 1800~2230
TUE:1200~1500, 1800~2230
WED:1200~1500, 1800~2230
THU:1200~1500, 1800~2230
FRI:1200~1500, 1800~2300
SAT:1200~1500, 1800~2300"
The Jade,Chek Lap Kok,Chinese,22.3192316,113.9419454,"12/F, Lantau Island, International Airport, 8 Airport Expo Blvd, Chek Lap Kok, Hong Kong",3556 3228,"SUN:1200~1500, 1730~2200
MON:1200~1500, 1730~2200
TUE:1200~1500, 1730~2200
WED:1200~1500, 1730~2200
THU:1200~1500, 1730~2200
FRI:1200~1500, 1730~2200
SAT:1200~1500, 1730~2200"
The Lounge,Chek Lap Kok,Bar & Lounge,22.3149715,113.9340063,"Lantau Island, Terminal 1, First Sky St, Chek Lap Kok, Hong Kong",2123 1483,"SUN:0600~0000
MON:0600~0000
TUE:0600~0000
WED:0600~0000
THU:0600~0000
FRI:0600~0000
SAT:0600~0000"
The Lounge (JW Marriott Hotel Hong Kong),Admiralty,Bar & Lounge,22.2776513,114.1663702,"J W Marriott Hotel Hong Kong Cum The Upper House, Queensway, Admiralty, Hong Kong",2810 8366,"SUN:1100~0000
MON:0800~0000
TUE:1100~0000
WED:1100~0000
THU:1100~0000
FRI:1100~0000
SAT:0800~0000"
"The Place (Cordis, Hong Kong)",Mong Kok,International,22.318175,114.168112,"555 Shanghai St, Mong Kok, Hong Kong",3552 3388,
The Point Kitchen,Tai Kok Tsui,Café & Kitchen,22.316575,114.1613874,"Shop 105A, 1/F, Olympian City 2, 18 Hoi Ting Rd, Tai Kok Tsui, Hong Kong",3614 5430,"SUN:1200~2200
MON:1200~2200
TUE:1200~2200
WED:1200~2200
THU:1200~2200
FRI:1200~2200
SAT:1200~2200"
The Point Pizza & Pasta,Tsim Sha Tsui,Italian,22.2999364,114.1727839,"Hong Kong, Tsim Sha Tsui, Nathan Rd, 100號L409",2598 0030,"SUN:1200~2200
MON:1200~2200
TUE:1200~2200
WED:1200~2200
THU:1200~2200
FRI:1200~2200
SAT:1200~2200"
The Sloth,Tsuen Wan,Café,22.3753458,114.113186,"Hong Kong, 荃灣青山公路 - 荃灣段388號中染大廈1樓115舖",2350 0368,"SUN:0700~2200
MON:0700~2200
TUE:0700~2200
WED:0700~2200
THU:0700~2200
FRI:0700~2200
SAT:0700~2200"
the street café,Multiple locations,Café,37.5249807,127.0512109,"Dosan-daero, Gangnam District, Seoul, South Korea",,"SUN:1000~2200
MON:1000~2200
TUE:1000~2200
WED:1000~2200
THU:1000~2200
FRI:1000~2200
SAT:1000~2200"
Timeo Coffee,Kowloon Bay,Coffee,22.3256778,114.2068191,"Shop G02, G/F, Goldin Financial Global Centre, 17 Kai Cheung Rd, Kowloon Bay, Hong Kong",,
Tonic,Mong Kok,Bar & Lounge,22.3181739,114.1685968,"Shop 07, Level 13 Langham Place, 8 Argyle St, Mong Kok, Hong Kong",2972 0019,"SUN:1700~0000
MON:1700~0000
TUE:1700~0000
WED:1700~0000
THU:1700~0000
FRI:1700~0200
SAT:1700~0200"
Top Grade Hot Pot,Tin Hau,Hot Pot,22.2848856,114.1921024,"5-7 Tsing Fung St, North Point, Hong Kong",2323 1008,"SUN:1530~0100
MON:1530~0100
TUE:1530~0100
WED:1530~0100
THU:1530~0100
FRI:1530~0100
SAT:1530~0100"
Tora Tetsu Teppanyaki,Causeway Bay,Japanese,22.2803108,114.1837624,"12/F, Macau Yat Yuen Centre, 525 Hennessy Rd, Causeway Bay, Hong Kong",2164 9968,"SUN:1200~1530, 1800~2300
MON:1200~1530, 1800~2300
TUE:1200~1530, 1800~2300
WED:1200~1530, 1800~2300
THU:1200~1530, 1800~2300
FRI:1200~1530, 1800~2300
SAT:1200~1530, 1800~2300"
Toretore Hamayaki,Causeway Bay,Japanese,22.2803276,114.1837332,"18/F, Macau Yat Yuen Centre, 525 Hennessy Rd, Causeway Bay, Hong Kong",2575 5677,"SUN:1200~1530, 1730~2300
MON:1200~1530, 1730~2300
TUE:1200~1530, 1730~2300
WED:1200~1530, 1730~2300
THU:1200~1530, 1730~2300
FRI:1200~1530, 1730~2300
SAT:1200~1530, 1730~2300"
Tori Izakaya,Causeway Bay,Japanese,22.2803137,114.183751,"17/F, Macau Yat Yuen Centre, 525 Hennessy Rd, Causeway Bay, Hong Kong",2717 7001,"SUN:1200~1600, 1700~2300
MON:1200~1600, 1700~2300
TUE:1200~1600, 1700~2300
WED:1200~1600, 1700~2300
THU:1200~1600, 1700~2300
FRI:1200~1600, 1700~2300
SAT:1200~1600, 1700~2300"
Tori Kin,Tsim Sha Tsui,Japanese,22.2996133,114.1738698,"Hong Kong, Tsim Sha Tsui, Hau Fook St, 12-12A號, The Lamma Tower, 21樓 21/F",5404 3764,"SUN:1400~0000
MON:1400~0000
TUE:1400~0000
WED:1400~0000
THU:1400~0000
FRI:1400~0000
SAT:1400~0000"
Tsukiyomi Tori-Soba,Tai Kok Tsui,Japanese,22.3163548,114.1616969,"Shop 146A, 1/F, Olympian City 2, 18 Hoi Ting Rd, Tai Kok Tsui, Hong Kong",2328 6266,"SUN:1100~2200
MON:1100~2200
TUE:1100~2200
WED:1100~2200
THU:1100~2200
FRI:1100~2200
SAT:1100~2200"
Twelve Cupcakes,Multiple locations,Bakery,1.2839718,103.851203,"1 Raffles Pl, B1-27, Singapore 048616",6533 8411,"MON:0900~2100
TUE:0900~2100
WED:0900~2100
THU:0900~2100
FRI:0900~2100"
Twinkle Baker Décor,Multiple locations,Bakery,22.2779519,114.1847609,"G02, Eton Tower, 8 Hysan Ave, Causeway Bay, Hong Kong",5720 1899,"SUN:1130~2030
MON:1130~2030
TUE:1130~2030
WED:1130~2030
THU:1130~2030
FRI:1130~2030
SAT:1130~2030"
Twist & Buckle,Tsim Sha Tsui,Bar & Lounge,22.2979041,114.1753096,"29-31 Chatham Rd S, Tsim Sha Tsui, Hong Kong",6508 2674,"SUN:1200~2230
MON:1200~2230
TUE:1200~2230
WED:1200~2230
THU:1200~2230
FRI:1200~2300
SAT:1200~2300"
Tze Yuet Heen (Crowne Plaza Hong Kong Kowloon East),Tseung Kwan O,Chinese,22.3078355,114.2596675,"Tseung Kwan O, Hong Kong",3983 0688,"SUN:0900~1600, 1800~2300
MON:1130~1500, 1800~2300
TUE:1130~1500, 1800~2300
WED:1130~1500, 1800~2300
THU:1130~1500, 1800~2300
FRI:1130~1500, 1800~2300
SAT:0900~1600, 1800~2300"
U Izakaya,Causeway Bay,Japanese,22.2772905,114.181626,"Hong Kong, Causeway Bay, Yiu Wa St, 38號ZING!10樓",9506 3962,"SUN:1200~1600, 1700~2300
MON:1200~1600, 1700~2300
TUE:1200~1600, 1700~2300
WED:1200~1600, 1700~2300
THU:1200~1600, 1700~2300
FRI:1200~1600, 1700~2300
SAT:1200~1600, 1700~2300"
Uchi Coffee,Tai Wai,Coffee,22.3765086,114.1782063,"Hong Kong, Tai Wai, Chik Shun St, 31-51號, On Shun Mansion, 49 地下P 舖",2677 3218,"SUN:1130~2200
MON:1130~2200
TUE:1130~2200
WED:1130~2200
THU:1130~2200
FRI:1130~2200
SAT:1130~2200"
Unagi Koubou,Tsim Sha Tsui,Japanese,22.2981609,114.1739487,"Hong Kong, Tsim Sha Tsui, Hart Ave, 1及3號, Lee Wai Commercial Building, 地下7號舖",5598 8744,"SUN:1200~1600, 1700~2230
MON:1200~1600, 1700~2230
TUE:1200~1600, 1700~2230
WED:1200~1600, 1700~2230
THU:1200~1600, 1700~2230
FRI:1200~1600, 1700~2230
SAT:1200~1600, 1700~2230"
Uncle Ming's,Wan Chai,Chinese,22.2792047,114.1768771,"25/F, AKI Hong Kong - MGallery, 239 Jaffe Rd, Wan Chai, Hong Kong",2121 5023,"SUN:1700~0000
MON:1700~0000
TUE:1700~0000
WED:1700~0000
THU:1700~0000
FRI:1700~0200
SAT:1700~0200"
Veda Café & Bar,Central,Café & Bar,22.2802407,114.1545988,"2 Arbuthnot Rd, Central, Hong Kong",3755 3067,"SUN:0700~1600
MON:0700~1600
TUE:0700~2230
WED:0700~2230
THU:0700~2230
FRI:0700~2230
SAT:0700~2230"
Victoria Pearl,North Point,Seafood,22.2929798,114.199574,"東座5樓, 北角匯, 1號 North Point Estate Ln, North Point, Hong Kong",2361 1172,"SUN:1100~1500, 1730~2200
MON:1100~1500, 1730~2200
TUE:1100~1500, 1730~2200
WED:1100~1500, 1730~2200
THU:1100~1500, 1730~2200
FRI:1100~1500, 1730~2200
SAT:1100~1500, 1730~2200"
Victorian Era,Multiple locations,British,,,,,No work time available
Villa26,Tsim Sha Tsui,Italian,22.2974599,114.1777302,"Tsim Sha Tsui Centre, 66號 Mody Rd, Tsim Sha Tsui, Hong Kong",2724 0707,"SUN:1200~2200
MON:1200~2200
TUE:1200~2200
WED:1200~2200
THU:1200~2200
FRI:1200~2200
SAT:1200~2200"
Vivace,Chek Lap Kok,Italian,22.3191672,113.9421627,"3/F, Lantau Island, International Airport, 8 Airport Expo Blvd, Chek Lap Kok, Hong Kong",3556 3218,"SUN:1200~2300
MON:1200~2300
TUE:1200~2300
WED:1200~2300
THU:1200~2300
FRI:1200~2300
SAT:1200~2300"
Vivant,Central,International,22.28235249999999,114.1547437,"Hong Kong, 中環擺花街8號G/F",2952 2766,"TUE:1800~0000
WED:1800~0000
THU:1800~0000
FRI:1800~0000
SAT:1800~0000"
Voynich,Tsim Sha Tsui,Cocktail Bar,22.2953381,114.1688303,"shop 401, Level 4, Ocean Centre, Harbour City, Canton Rd, Tsim Sha Tsui, Hong Kong",2688 2408,"SUN:1200~2300
MON:1200~2300
TUE:1200~2300
WED:1200~2300
THU:1200~2300
FRI:1200~2300
SAT:1200~2300"
Wagyu Yakiniku Ichiro,Multiple locations,Japanese,,,,,No work time available
Wall Is Eat,Yau Ma Tei,Asian Fusion,22.3124806,114.1703052,"M1 Hotel, 28 Portland St, Yau Ma Tei, Hong Kong",2710 6633,"SUN:1200~2230
MON:1200~2230
TUE:1200~2230
WED:1200~2230
THU:1200~2230
FRI:1200~2230
SAT:1200~2230"
Whey,Central,Café,22.2848936,114.1528269,"UG/F, The Wellington, 198 Wellington St, Central, Hong Kong",2693 3198,"SUN:1200~1500, 1800~2300
MON:1200~1500, 1800~2300
TUE:1200~1500, 1800~2300
WED:1200~1500, 1800~2300
THU:1200~1500, 1800~2300
FRI:1200~1500, 1800~2300
SAT:1200~1500, 1800~2300"
WOOBAR,Tsim Sha Tsui,Bar & Lounge,22.3048667,114.1606448,"Hong Kong, Tsim Sha Tsui, Austin Rd W, 1號, W 6, F",3717 2889,"SUN:1200~2200
MON:1200~0000
TUE:1200~0000
WED:1200~0000
THU:1200~0000
FRI:1200~0000
SAT:1200~0000"
Wulu Restaurant,Tsim Sha Tsui,International,22.3028232,114.1753561,"Perfect Commercial Building, 20號 Austin Ave, Tsim Sha Tsui, Hong Kong",2606 2106,"SUN:1700~0000
MON:1700~0000
TUE:1700~0000
WED:1700~0000
THU:1700~0000
FRI:1700~0000
SAT:1700~0000"
Xiabu Xiabu,Multiple locations,Chinese,39.9400771,116.4354986,"China, Bei Jing Shi, Dong Cheng Qu, Dongzhimen, 东直门外大街48号银座MALL地下一层 邮政编码: 100007",400 817 7878,"SUN:1030~2130
MON:1030~2130
TUE:1030~2130
WED:1030~2130
THU:1030~2130
FRI:1030~2130
SAT:1030~2130"
Yakiniku Homura,Tuen Mun,Japanese,22.393048,113.976644,"Hong Kong, Tuen Mun, Tuen Shun St, 1號屯門市廣場1期2樓2253A舖",2330 3881,"SUN:1130~2130
MON:1130~2130
TUE:1130~2130
WED:1130~2130
THU:1130~2130
FRI:1130~2130
SAT:1130~2130"
YAKINIKU KAKURA,Causeway Bay,Japanese,22.2813968,114.1839249,"Hong Kong, Causeway Bay, Jaffe Rd, 535號HK 香港島 銅鑼灣 Tower 535 1樓 101-102號舖",2803 2138,"SUN:1200~2200
MON:1200~2200
TUE:1200~2200
WED:1200~2200
THU:1200~2200
FRI:1200~2200
SAT:1200~2200"
Yakiniku Otoko,Multiple locations,Japanese,22.3068805,114.2561653,"Hong Kong, Tseung Kwan O, Tong Tak St, 9號, Park Central, 1樓135號舖",9767 1789,"SUN:1100~2230
MON:1130~2230
TUE:1130~2230
WED:1130~2230
THU:1130~2230
FRI:1130~2230
SAT:1100~0030"
Yakiniku Shin,Tsim Sha Tsui,Japanese,22.2983375,114.1743575,"Shop 102, 1/F, Multifield Plaza, 3-7A Prat Ave, Tsim Sha Tsui, Hong Kong",2518 3828,"SUN:1300~1600, 1700~2300
MON:1300~1600, 1700~2300
TUE:1300~1600, 1700~2300
WED:1300~1600, 1700~2300
THU:1300~1600, 1700~2300
FRI:1300~1600, 1700~2300
SAT:1300~1600, 1700~2300"
Yakiniku Ushio,Central,Japanese,22.280824,114.1560904,"Wellington Place, 2-8 Wellington St, Central, Hong Kong",2328 2318,"SUN:1200~1500, 1800~2230
MON:1200~1500, 1800~2230
TUE:1200~1500, 1800~2230
WED:1200~1500, 1800~2230
THU:1200~1500, 1800~2230
FRI:1200~1500, 1800~2230
SAT:1200~1500, 1800~2230"
YASHIMA,Central,Japanese,22.2845699,114.1530312,"G/F, 2-4 Kau U Fong, Central, Hong Kong",2328 8089,"SUN:1200~1500, 1800~2300
MON:1200~1500, 1800~2300
TUE:1200~1500, 1800~2300
WED:1200~1500, 1800~2300
THU:1200~1500, 1800~2300
FRI:1200~1500, 1800~2300
SAT:1200~1500, 1800~2300"
Ying Jee Club,Central,Chinese,22.2843176,114.1565628,"Shop G05, 107-108, Nexxus Building, 41 Connaught Rd Central, Central, Hong Kong",2801 6882,"SUN:1130~1500, 1800~2300
MON:1130~1500, 1800~2300
TUE:1130~1500, 1800~2300
WED:1130~1500, 1800~2300
THU:1130~1500, 1800~2300
FRI:1130~1500, 1800~2300
SAT:1130~1500, 1800~2300"
YinYue,Tsuen Wan,Chinese,22.3690715,114.1210027,"Hong Kong, Tsuen Wan, Tsuen Wah St, 3號, 30, 號 悅 來 酒店",2409 3182,"SUN:1000~1530, 1800~2230
MON:1100~1500, 1800~2230
TUE:1100~1500, 1800~2230
WED:1100~1500, 1800~2230
THU:1100~1500, 1800~2230
FRI:1100~1500, 1800~2230
SAT:1100~1500, 1800~2230"
Yurakucho,Central,Japanese,22.280928,114.1549201,"G/F, Yu Yuet Lai Building, 43-55 Wyndham St, Central, Hong Kong",2663 0068,"MON:1200~0000
TUE:1200~0000
WED:1200~0000
THU:1200~0000
FRI:1200~0200
SAT:1200~0200"
Zenon Cafe,Central,Café,22.282702,114.1546736,"86號 Wellington St, Central, Hong Kong",3425 4488,"SUN:0930~2130
MON:0930~2130
TUE:0930~2130
WED:0930~2130
THU:0930~2130
FRI:0930~2230
SAT:0930~2230"
Zoku Restaurant & The Terrace,Wan Chai,International,22.2789052,114.1781576,"2/F, 330 Lockhart Rd, Wan Chai, Hong Kong",2129 0338,"SUN:1200~2300
MON:1200~1430, 1500~2300
TUE:1200~1430, 1500~2300
WED:1200~1430, 1500~2300
THU:1200~1430, 1500~2300
FRI:1200~1430, 1500~2300
SAT:1200~2300"
ZZURA,Central,Japanese,22.28220109999999,114.1540188,"2/F, Amber Lodge, 23 Hollywood Rd, Central, Hong Kong",2639 9155,"SUN:1600~0000
TUE:1600~0000
WED:1600~0000
THU:1700~0100
FRI:1700~0200
SAT:1700~0200"
